DELTA 2 R/B             
1 25876U 99041E   26063.13230769  .00001895  00000+0  34235-3 0  9991
2 25876  51.7645 323.4770 0502347 332.0291  25.4449 14.11818994362246
HELIOS 1B               
1 25977U 99064A   26063.33309934  .00003224  00000+0  36052-3 0  9998
2 25977  98.1701 325.4190 0002528  82.3724 277.7778 14.87673008684462
TERRA                   
1 25994U 99068A   26063.59679119  .00000645  00000+0  14056-3 0  9998
2 25994  97.9603 117.2259 0002377 163.6152 352.3892 14.61008698394332
SL-16 R/B               
1 26070U 00006B   26063.50166887  .00000193  00000+0  12216-3 0  9996
2 26070  71.0013 108.7468 0017152 197.3762 162.6776 14.15824965347828
TITAN 4B R/B            
1 26474U 00047B   26063.59458782  .00005982  00000+0  37412-3 0  9992
2 26474  67.9888  54.8363 0038114  41.4246 318.9782 15.09502793392146
ENVISAT                 
1 27386U 02009A   26063.47616368  .00000208  00000+0  81123-4 0  9993
2 27386  98.3720  17.1979 0001333  84.4592  25.6450 14.39034830258421
IDEFIX & ARIANE 42P R/B 
1 27422U 02021B   26063.39169823  .00000431  00000+0  18028-3 0  9999
2 27422  98.5866   2.0614 0011272 198.2764 161.8015 14.31022003243269
AQUA                    
1 27424U 02022A   26063.61871009  .00001466  00000+0  30251-3 0  9994
2 27424  98.4166  30.8916 0000640  60.9696 353.8727 14.61962533267996
CZ-4B R/B               
1 27432U 02024C   26063.57729847  .00000074  00000+0  60850-4 0  9995
2 27432  98.8850 117.0095 0050717  38.6002 133.7598 14.14546626228513
MIDORI II (ADEOS-II)    
1 27597U 02056A   26063.48333721  .00000458  00000+0  19793-3 0  9999
2 27597  98.7761  21.9252 0001781  50.0959 310.0379 14.29280605209557
H-2A R/B                
1 27601U 02056E   26063.48308938  .00000403  00000+0  15550-3 0  9994
2 27601  98.3194  24.0472 0070178 176.1427 295.4588 14.33756996213361
CZ-4B R/B               
1 28059U 03049C   26063.50099525  .00000621  00000+0  15405-3 0  9998
2 28059  98.6874  58.2023 0047075 247.0745 112.5479 14.55014781185841
CZ-2C R/B               
1 28222U 04012C   26063.17120259  .00071201  00000+0  75524-3 0  9993
2 28222  97.7244 127.9435 0013211 331.6844  28.3694 15.63762571203414
SL-16 R/B               
1 28353U 04021B   26063.50713661 -.00000154  00000+0 -55300-4 0  9992
2 28353  70.9991 243.3689 0003757  19.6966 340.4301 14.14599523122106
CZ-4B R/B               
1 28415U 04035C   26063.08471853  .00011746  00000+0  41410-3 0  9996
2 28415  97.3503  97.3943 0031572 351.8851   8.1874 15.28943125179053
CZ-2C R/B               
1 28480U 04046B   26063.36688739  .00000173  00000+0  79149-4 0  9997
2 28480  98.1987 338.6819 0139558 170.1424 190.2547 14.26990151107749
ARIANE 5 R/B            
1 28499U 04049H   26063.44529625  .00001197  00000+0  13803-3 0  9998
2 28499  98.2617 231.7063 0084315   8.9273 351.3417 14.85255229145017
