[{"OBJECT_NAME":"DELTA 2 R/B","OBJECT_ID":"1999-041E","EPOCH":"2026-03-04T03:10:31.384416","MEAN_MOTION":14.11818994,"ECCENTRICITY":0.05023471,"INCLINATION":51.7645,"RA_OF_ASC_NODE":323.477,"ARG_OF_PERICENTER":332.0291,"MEAN_ANOMALY":25.4449,"EPHEMERIS_TYPE":0,"CLASSIFICATION_TYPE":"U","NORAD_CAT_ID":25876,"ELEMENT_SET_NO":999,"REV_AT_EPOCH":36224,"BSTAR":0.00034234714,"MEAN_MOTION_DOT":1.895e-5,"MEAN_MOTION_DDOT":0},{"OBJECT_NAME":"HELIOS 1B","OBJECT_ID":"1999-064A","EPOCH":"2026-03-04T07:59:39.782976","MEAN_MOTION":14.87673008,"ECCENTRICITY":0.00025289,"INCLINATION":98.1701,"RA_OF_ASC_NODE":325.419,"ARG_OF_PERICENTER":82.3724,"MEAN_ANOMALY":277.7778,"EPHEMERIS_TYPE":0,"CLASSIFICATION_TYPE":"U","NORAD_CAT_ID":25977,"ELEMENT_SET_NO":999,"REV_AT_EPOCH":68446,"BSTAR":0.00036051541,"MEAN_MOTION_DOT":3.224e-5,"MEAN_MOTION_DDOT":0},{"OBJECT_NAME":"TERRA","OBJECT_ID":"1999-068A","EPOCH":"2026-03-04T14:19:22.758816","MEAN_MOTION":14.61008698,"ECCENTRICITY":0.00023774,"INCLINATION":97.9603,"RA_OF_ASC_NODE":117.2259,"ARG_OF_PERICENTER":163.6152,"MEAN_ANOMALY":352.3892,"EPHEMERIS_TYPE":0,"CLASSIFICATION_TYPE":"U","NORAD_CAT_ID":25994,"ELEMENT_SET_NO":999,"REV_AT_EPOCH":39433,"BSTAR":0.00014055896,"MEAN_MOTION_DOT":6.45e-6,"MEAN_MOTION_DDOT":0},{"OBJECT_NAME":"SL-16 R/B","OBJECT_ID":"2000-006B","EPOCH":"2026-03-04T12:02:24.190368","MEAN_MOTION":14.15824965,"ECCENTRICITY":0.0017152,"INCLINATION":71.0013,"RA_OF_ASC_NODE":108.7468,"ARG_OF_PERICENTER":197.3762,"MEAN_ANOMALY":162.6776,"EPHEMERIS_TYPE":0,"CLASSIFICATION_TYPE":"U","NORAD_CAT_ID":26070,"ELEMENT_SET_NO":999,"REV_AT_EPOCH":34782,"BSTAR":0.00012216079,"MEAN_MOTION_DOT":1.93e-6,"MEAN_MOTION_DDOT":0},{"OBJECT_NAME":"TITAN 4B R/B","OBJECT_ID":"2000-047B","EPOCH":"2026-03-04T14:16:12.387648","MEAN_MOTION":15.09502793,"ECCENTRICITY":0.00381145,"INCLINATION":67.9888,"RA_OF_ASC_NODE":54.8363,"ARG_OF_PERICENTER":41.4246,"MEAN_ANOMALY":318.9782,"EPHEMERIS_TYPE":0,"CLASSIFICATION_TYPE":"U","NORAD_CAT_ID":26474,"ELEMENT_SET_NO":999,"REV_AT_EPOCH":39214,"BSTAR":0.00037412124,"MEAN_MOTION_DOT":5.982e-5,"MEAN_MOTION_DDOT":0},{"OBJECT_NAME":"ENVISAT","OBJECT_ID":"2002-009A","EPOCH":"2026-03-04T11:25:40.541952","MEAN_MOTION":14.3903483,"ECCENTRICITY":0.00013338,"INCLINATION":98.372,"RA_OF_ASC_NODE":17.1979,"ARG_OF_PERICENTER":84.4592,"MEAN_ANOMALY":25.645,"EPHEMERIS_TYPE":0,"CLASSIFICATION_TYPE":"U","NORAD_CAT_ID":27386,"ELEMENT_SET_NO":999,"REV_AT_EPOCH":25842,"BSTAR":8.1122901e-5,"MEAN_MOTION_DOT":2.08e-6,"MEAN_MOTION_DDOT":0},{"OBJECT_NAME":"IDEFIX & ARIANE 42P R/B","OBJECT_ID":"2002-021B","EPOCH":"2026-03-04T09:24:02.727072","MEAN_MOTION":14.31022003,"ECCENTRICITY":0.00112728,"INCLINATION":98.5866,"RA_OF_ASC_NODE":2.0614,"ARG_OF_PERICENTER":198.2764,"MEAN_ANOMALY":161.8015,"EPHEMERIS_TYPE":0,"CLASSIFICATION_TYPE":"U","NORAD_CAT_ID":27422,"ELEMENT_SET_NO":999,"REV_AT_EPOCH":24326,"BSTAR":0.00018028059,"MEAN_MOTION_DOT":4.31e-6,"MEAN_MOTION_DDOT":0},{"OBJECT_NAME":"AQUA","OBJECT_ID":"2002-022A","EPOCH":"2026-03-04T14:50:56.551776","MEAN_MOTION":14.61962533,"ECCENTRICITY":6.4e-5,"INCLINATION":98.4166,"RA_OF_ASC_NODE":30.8916,"ARG_OF_PERICENTER":60.9696,"MEAN_ANOMALY":353.8727,"EPHEMERIS_TYPE":0,"CLASSIFICATION_TYPE":"U","NORAD_CAT_ID":27424,"ELEMENT_SET_NO":999,"REV_AT_EPOCH":26799,"BSTAR":0.00030251025,"MEAN_MOTION_DOT":1.466e-5,"MEAN_MOTION_DDOT":0},{"OBJECT_NAME":"CZ-4B R/B","OBJECT_ID":"2002-024C","EPOCH":"2026-03-04T13:51:18.587808","MEAN_MOTION":14.14546626,"ECCENTRICITY":0.00507173,"INCLINATION":98.885,"RA_OF_ASC_NODE":117.0095,"ARG_OF_PERICENTER":38.6002,"MEAN_ANOMALY":133.7598,"EPHEMERIS_TYPE":0,"CLASSIFICATION_TYPE":"U","NORAD_CAT_ID":27432,"ELEMENT_SET_NO":999,"REV_AT_EPOCH":22851,"BSTAR":6.0850263e-5,"MEAN_MOTION_DOT":7.4e-7,"MEAN_MOTION_DDOT":0},{"OBJECT_NAME":"MIDORI II (ADEOS-II)","OBJECT_ID":"2002-056A","EPOCH":"2026-03-04T11:36:00.334944","MEAN_MOTION":14.29280605,"ECCENTRICITY":0.0001781,"INCLINATION":98.7761,"RA_OF_ASC_NODE":21.9252,"ARG_OF_PERICENTER":50.0959,"MEAN_ANOMALY":310.0379,"EPHEMERIS_TYPE":0,"CLASSIFICATION_TYPE":"U","NORAD_CAT_ID":27597,"ELEMENT_SET_NO":999,"REV_AT_EPOCH":20955,"BSTAR":0.00019793252,"MEAN_MOTION_DOT":4.58e-6,"MEAN_MOTION_DDOT":0},{"OBJECT_NAME":"H-2A R/B","OBJECT_ID":"2002-056E","EPOCH":"2026-03-04T11:35:38.922432","MEAN_MOTION":14.33756996,"ECCENTRICITY":0.00701782,"INCLINATION":98.3194,"RA_OF_ASC_NODE":24.0472,"ARG_OF_PERICENTER":176.1427,"MEAN_ANOMALY":295.4588,"EPHEMERIS_TYPE":0,"CLASSIFICATION_TYPE":"U","NORAD_CAT_ID":27601,"ELEMENT_SET_NO":999,"REV_AT_EPOCH":21336,"BSTAR":0.00015549995,"MEAN_MOTION_DOT":4.03e-6,"MEAN_MOTION_DDOT":0},{"OBJECT_NAME":"CZ-4B R/B","OBJECT_ID":"2003-049C","EPOCH":"2026-03-04T12:01:25.989600","MEAN_MOTION":14.55014781,"ECCENTRICITY":0.00470753,"INCLINATION":98.6874,"RA_OF_ASC_NODE":58.2023,"ARG_OF_PERICENTER":247.0745,"MEAN_ANOMALY":112.5479,"EPHEMERIS_TYPE":0,"CLASSIFICATION_TYPE":"U","NORAD_CAT_ID":28059,"ELEMENT_SET_NO":999,"REV_AT_EPOCH":18584,"BSTAR":0.00015405097,"MEAN_MOTION_DOT":6.21e-6,"MEAN_MOTION_DDOT":0},{"OBJECT_NAME":"CZ-2C R/B","OBJECT_ID":"2004-012C","EPOCH":"2026-03-04T04:06:31.903776","MEAN_MOTION":15.63762571,"ECCENTRICITY":0.00132118,"INCLINATION":97.7244,"RA_OF_ASC_NODE":127.9435,"ARG_OF_PERICENTER":331.6844,"MEAN_ANOMALY":28.3694,"EPHEMERIS_TYPE":0,"CLASSIFICATION_TYPE":"U","NORAD_CAT_ID":28222,"ELEMENT_SET_NO":999,"REV_AT_EPOCH":20341,"BSTAR":0.00075523906,"MEAN_MOTION_DOT":0.00071201,"MEAN_MOTION_DDOT":0},{"OBJECT_NAME":"SL-16 R/B","OBJECT_ID":"2004-021B","EPOCH":"2026-03-04T12:10:16.603104","MEAN_MOTION":14.14599523,"ECCENTRICITY":0.00037577,"INCLINATION":70.9991,"RA_OF_ASC_NODE":243.3689,"ARG_OF_PERICENTER":19.6966,"MEAN_ANOMALY":340.4301,"EPHEMERIS_TYPE":0,"CLASSIFICATION_TYPE":"U","NORAD_CAT_ID":28353,"ELEMENT_SET_NO":999,"REV_AT_EPOCH":12210,"BSTAR":-5.5300026e-5,"MEAN_MOTION_DOT":-1.54e-6,"MEAN_MOTION_DDOT":0},{"OBJECT_NAME":"CZ-4B R/B","OBJECT_ID":"2004-035C","EPOCH":"2026-03-04T02:01:59.680992","MEAN_MOTION":15.28943125,"ECCENTRICITY":0.00315721,"INCLINATION":97.3503,"RA_OF_ASC_NODE":97.3943,"ARG_OF_PERICENTER":351.8851,"MEAN_ANOMALY":8.1874,"EPHEMERIS_TYPE":0,"CLASSIFICATION_TYPE":"U","NORAD_CAT_ID":28415,"ELEMENT_SET_NO":999,"REV_AT_EPOCH":17905,"BSTAR":0.00041410443,"MEAN_MOTION_DOT":0.00011746,"MEAN_MOTION_DDOT":0},{"OBJECT_NAME":"CZ-2C R/B","OBJECT_ID":"2004-046B","EPOCH":"2026-03-04T08:48:19.070496","MEAN_MOTION":14.26990151,"ECCENTRICITY":0.01395581,"INCLINATION":98.1987,"RA_OF_ASC_NODE":338.6819,"ARG_OF_PERICENTER":170.1424,"MEAN_ANOMALY":190.2547,"EPHEMERIS_TYPE":0,"CLASSIFICATION_TYPE":"U","NORAD_CAT_ID":28480,"ELEMENT_SET_NO":999,"REV_AT_EPOCH":10774,"BSTAR":7.9149141e-5,"MEAN_MOTION_DOT":1.73e-6,"MEAN_MOTION_DDOT":0},{"OBJECT_NAME":"ARIANE 5 R/B","OBJECT_ID":"2004-049H","EPOCH":"2026-03-04T10:41:13.596000","MEAN_MOTION":14.85255229,"ECCENTRICITY":0.00843157,"INCLINATION":98.2617,"RA_OF_ASC_NODE":231.7063,"ARG_OF_PERICENTER":8.9273,"MEAN_ANOMALY":351.3417,"EPHEMERIS_TYPE":0,"CLASSIFICATION_TYPE":"U","NORAD_CAT_ID":28499,"ELEMENT_SET_NO":999,"REV_AT_EPOCH":14501,"BSTAR":0.00013803463,"MEAN_MOTION_DOT":1.197e-5,"MEAN_MOTION_DDOT":0}]
